IRIDIUM 155             
1 43573U 18061E   24238.75206452  .00000429  00000+0  14613-3 0  9990
2 43573  86.4012 332.6914 0002035  89.7032 270.4397 14.34219642318697
IRIDIUM 154             
1 43574U 18061F   24238.80280718  .00000362  00000+0  12212-3 0  9993
2 43574  86.4016 332.7714 0002365  95.4451 264.7015 14.34217676318751
IRIDIUM 163             
1 43575U 18061G   24238.78378082  .00000619  00000+0  21403-3 0  9990
2 43575  86.4014 332.7155 0002250  91.6941 268.4513 14.34222403318729
IRIDIUM 156             
1 43576U 18061H   24238.82817409  .00000614  00000+0  21209-3 0  9996
2 43576  86.4014 332.7034 0001927  96.4417 263.6998 14.34215631318726
IRIDIUM 164             
1 43577U 18061J   24238.53007513  .00000306  00000+0  10220-3 0  9991
2 43577  86.4016 332.8578 0002346 100.3326 259.8134 14.34218607318728
IRIDIUM 159             
1 43578U 18061K   24238.77743646  .00000387  00000+0  13115-3 0  9997
2 43578  86.4013 332.7050 0002270  96.7498 263.3956 14.34217218318723
IRIDIUM 180             
1 43922U 19002A   24238.84670797  .00000512  00000+0  17557-3 0  9994
2 43922  86.3916 269.5329 0002437  94.1138 266.0337 14.34220785294348
IRIDIUM 176             
1 43923U 19002B   24239.12450184  .00001797  00000+0  28112-3 0  9998
2 43923  86.6045 269.4330 0002538  94.0738 266.0769 14.72251255302137
IRIDIUM 168             
1 43924U 19002C   24238.84035772  .00000441  00000+0  15045-3 0  9995
2 43924  86.3918 269.5943 0002344  94.2349 265.9115 14.34220019294326
IRIDIUM 173             
1 43925U 19002D   24238.82768360  .00000515  00000+0  17687-3 0  9996
2 43925  86.3915 269.5156 0002399  92.4987 267.6483 14.34220315294302
IRIDIUM 169             
1 43926U 19002E   24238.88974442  .00000306  00000+0  93631-4 0  9995
2 43926  86.4219 301.1341 0002984  53.8675 306.2799 14.38594531295292
IRIDIUM 172             
1 43927U 19002F   24238.82133980  .00000516  00000+0  17720-3 0  9991
2 43927  86.3915 269.5241 0002250  92.7518 267.3935 14.34220432294318
IRIDIUM 175             
1 43928U 19002G   24239.05119411  .00000923  00000+0  14241-3 0  9998
2 43928  86.1474 238.6569 0002394  86.9009 273.2481 14.72251985302115
IRIDIUM 171             
1 43929U 19002H   24238.80230183  .00000516  00000+0  17726-3 0  9990
2 43929  86.3926 269.7655 0002128  99.1123 261.0313 14.34218267294303
IRIDIUM 170             
1 43930U 19002J   24238.79085345  .00002015  00000+0  31565-3 0  9991
2 43930  86.6046 269.5777 0002608  92.6976 267.4539 14.72252410302097
IRIDIUM 167             
1 43931U 19002K   24238.79595995  .00000417  00000+0  14195-3 0  9993
2 43931  86.3916 269.5513 0002141  93.9391 266.2049 14.34218797294301
IRIDIUM 181             
1 56726U 23068S   24238.77025295  .00000945  00000+0  27330-3 0  9996
2 56726  86.8672 326.6954 0001842  92.7159 267.4254 14.43581131 67170
IRIDIUM 177             
1 56727U 23068T   24239.19288279  .00002770  00000+0  36118-3 0  9999
2 56727  86.1938 282.1207 0002075  90.7069 269.4390 14.80221284 68730
IRIDIUM 174             
1 56728U 23068U   24239.18745151  .00002792  00000+0  36401-3 0  9995
2 56728  86.1945 282.2326 0001799  92.1266 268.0161 14.80225243 68739
IRIDIUM 178             
1 56729U 23068V   24238.91163039  .00002800  00000+0  36504-3 0  9999
2 56729  86.5772 303.1422 0002006  99.8759 260.2689 14.80227107 68690
IRIDIUM 179             
1 56730U 23068W   24239.17647501  .00000945  00000+0  12115-3 0  9991
2 56730  86.6794 308.0471 0002320  83.5942 276.5543 14.80150480 68731
